NORAD_CAT_ID,OBJECT_NAME,OBJECT_TYPE,EPOCH,MEAN_MOTION,ECCENTRICITY,INCLINATION,RA_OF_ASC_NODE,ARG_OF_PERICENTER,MEAN_ANOMALY,BSTAR,MEAN_MOTION_DOT,MEAN_MOTION_DDOT,TLE_LINE0,TLE_LINE1,TLE_LINE2,SEMIMAJOR_AXIS,PERIOD,APOGEE,PERIGEE,DECAYED
51864.0,STARLINK-3548,PAYLOAD,2023-12-09 12:45:56,15.08838122,0.0001881,53.2179,95.3609,122.6001,237.5173,1.8284e-05,3e-08,0.0,0 STARLINK-3548,1 51864U 22022N   23343.53190634  .00000003  00000-0  18284-4 0  9998,2 51864  53.2179  95.3609 0001881 122.6001 237.5173 15.08838122 99199,6917.886,95.438,541.052,538.45,0.0
51864.0,STARLINK-3548,PAYLOAD,2023-12-10 14:12:06,15.08844234,0.000126,53.2167,90.6037,100.6229,259.4905,1.3971e-06,-2.66e-06,0.0,0 STARLINK-3548,1 51864U 22022N   23344.59174544 -.00000266  00000-0  13971-5 0  9998,2 51864  53.2167  90.6037 0001260 100.6229 259.4905 15.08844234 99353,6917.867,95.437,540.604,538.861,0.0
51864.0,STARLINK-3548,PAYLOAD,2023-12-11 10:52:08,15.08834312,0.0001376,53.2182,86.7411,99.5476,260.5671,1.2739e-05,-8.5e-07,0.0,0 STARLINK-3548,1 51864U 22022N   23345.45287285 -.00000085  00000-0  12739-4 0  9990,2 51864  53.2182  86.7411 0001376  99.5476 260.5671 15.08834312 99483,6917.898,95.438,540.715,538.811,0.0
51864.0,STARLINK-3548,PAYLOAD,2023-12-11 12:27:31,15.08835191,0.0001386,53.2184,86.4441,98.6715,261.4434,2.0923e-05,4.5e-07,0.0,0 STARLINK-3548,1 51864U 22022N   23345.51911237  .00000045  00000-0  20923-4 0  9997,2 51864  53.2184  86.4441 0001386  98.6715 261.4434 15.08835191 99496,6917.895,95.438,540.719,538.801,0.0
51864.0,STARLINK-3548,PAYLOAD,2023-12-12 13:53:41,15.08838358,0.0001307,53.2178,81.6867,91.2015,268.9127,8.1799e-06,-1.58e-06,0.0,0 STARLINK-3548,1 51864U 22022N   23346.57895353 -.00000158  00000-0  81799-5 0  9999,2 51864  53.2178  81.6867 0001307  91.2015 268.9127 15.08838358 99650,6917.885,95.438,540.655,538.846,0.0
51864.0,STARLINK-3548,PAYLOAD,2023-12-13 13:44:28,15.08844514,0.0001301,53.2178,77.2254,81.7253,278.3887,0.00010041,1.311e-05,0.0,0 STARLINK-3548,1 51864U 22022N   23347.57254716  .00001311  00000-0  10041-3 0  9993,2 51864  53.2178  77.2254 0001301  81.7253 278.3887 15.08844514 99809,6917.867,95.437,540.632,538.832,0.0
51864.0,STARLINK-3548,PAYLOAD,2023-12-14 11:59:52,15.08837374,0.0001711,53.2192,73.0625,66.1659,293.9512,5.2718e-06,-2.04e-06,0.0,0 STARLINK-3548,1 51864U 22022N   23348.49991741 -.00000204  00000-0  52718-5 0  9991,2 51864  53.2192  73.0625 0001711  66.1659 293.9512 15.08837374 99942,6917.888,95.438,540.937,538.57,0.0
51864.0,STARLINK-3548,PAYLOAD,2023-12-14 13:35:15,15.08840117,0.0001477,53.2182,72.7664,74.2827,285.8328,3.3046e-05,2.38e-06,0.0,0 STARLINK-3548,1 51864U 22022N   23348.56615396  .00000238  00000-0  33046-4 0  9996,2 51864  53.2182  72.7664 0001477  74.2827 285.8328 15.08840117 99951,6917.88,95.438,540.767,538.723,0.0
51864.0,STARLINK-3548,PAYLOAD,2023-12-15 11:50:40,15.08839775,0.0001763,53.2188,68.6023,64.3675,295.7499,-4.8569e-05,-1.061e-05,0.0,0 STARLINK-3548,1 51864U 22022N   23349.49351879 -.00001061  00000-0 -48569-4 0  9995,2 51864  53.2188  68.6023 0001763  64.3675 295.7499 15.08839775100094,6917.881,95.438,540.966,538.526,0.0
51864.0,STARLINK-3548,PAYLOAD,2023-12-16 11:41:26,15.08844765,0.0001519,53.2181,64.1414,72.3436,287.7722,3.9217e-05,3.36e-06,0.0,0 STARLINK-3548,1 51864U 22022N   23350.48711258  .00000336  00000-0  39217-4 0  9999,2 51864  53.2181  64.1414 0001519  72.3436 287.7722 15.08844765100247,6917.866,95.437,540.782,538.68,0.0
51864.0,STARLINK-3548,PAYLOAD,2023-12-17 11:32:13,15.0883977,0.000155,53.2194,59.6774,102.8136,257.3029,-1.0426e-05,-4.54e-06,0.0,0 STARLINK-3548,1 51864U 22022N   23351.48071680 -.00000454  00000-0 -10426-4 0  9992,2 51864  53.2194  59.6774 0001550 102.8136 257.3029 15.08839770100399,6917.881,95.438,540.818,538.674,0.0
51864.0,STARLINK-3548,PAYLOAD,2023-12-18 09:47:37,15.08847193,0.0001518,53.2197,55.5197,104.3195,255.7966,4.5612e-05,4.38e-06,0.0,0 STARLINK-3548,1 51864U 22022N   23352.40806991  .00000438  00000-0  45612-4 0  9991,2 51864  53.2197  55.5197 0001518 104.3195 255.7966 15.08847193100538,6917.858,95.437,540.774,538.673,0.0
51864.0,STARLINK-3548,PAYLOAD,2023-12-19 11:13:48,15.08839574,0.0001442,53.2189,50.7612,111.4071,248.7075,1.01e-05,-1.27e-06,0.0,0 STARLINK-3548,1 51864U 22022N   23353.46791678 -.00000127  00000-0  10100-4 0  9993,2 51864  53.2189  50.7612 0001442 111.4071 248.7075 15.08839574100690,6917.882,95.438,540.744,538.749,0.0
51864.0,STARLINK-3548,PAYLOAD,2023-12-20 11:04:35,15.08838669,0.0001476,53.2194,46.3022,63.3178,296.7965,-7.278e-05,-1.446e-05,0.0,0 STARLINK-3548,1 51864U 22022N   23354.46152557 -.00001446  00000-0 -72780-4 0  9999,2 51864  53.2194  46.3022 0001476  63.3178 296.7965 15.08838669100844,6917.884,95.438,540.771,538.728,0.0
51864.0,STARLINK-3548,PAYLOAD,2023-12-21 10:55:22,15.08847231,0.0001581,53.2194,41.8391,89.1864,270.9309,0.00013925,1.929e-05,0.0,0 STARLINK-3548,1 51864U 22022N   23355.45511695  .00001929  00000-0  13925-3 0  9990,2 51864  53.2194  41.8391 0001581  89.1864 270.9309 15.08847231100995,6917.858,95.437,540.817,538.63,0.0
51864.0,STARLINK-3548,PAYLOAD,2023-12-22 10:46:09,15.08843846,0.0001694,53.2192,37.3789,73.3496,286.7683,0.00010236,1.342e-05,0.0,0 STARLINK-3548,1 51864U 22022N   23356.44872318  .00001342  00000-0  10236-3 0  9993,2 51864  53.2192  37.3789 0001694  73.3496 286.7683 15.08843846101141,6917.869,95.437,540.906,538.562,0.0
51864.0,STARLINK-3548,PAYLOAD,2023-12-23 09:01:34,15.08844118,0.0001993,53.2197,33.2137,69.6816,290.439,-5.8682e-05,-1.222e-05,0.0,0 STARLINK-3548,1 51864U 22022N   23357.37608928 -.00001222  00000-0 -58682-4 0  9997,2 51864  53.2197  33.2137 0001993  69.6816 290.4390 15.08844118101289,6917.868,95.437,541.112,538.354,0.0
51864.0,STARLINK-3548,PAYLOAD,2023-12-24 12:03:06,15.08850091,0.0001577,53.2189,28.154,100.5009,259.6161,7.4827e-05,9.03e-06,0.0,0 STARLINK-3548,1 51864U 22022N   23358.50215780  .00000903  00000-0  74827-4 0  9995,2 51864  53.2189  28.1540 0001577 100.5009 259.6161 15.08850091101457,6917.85,95.437,540.805,538.624,0.0
51864.0,STARLINK-3548,PAYLOAD,2023-12-25 08:43:07,15.08841438,0.0001719,53.2192,24.2906,105.6416,254.4766,6.4159e-05,7.33e-06,0.0,0 STARLINK-3548,1 51864U 22022N   23359.36328471  .00000733  00000-0  64159-4 0  9990,2 51864  53.2192  24.2906 0001719 105.6416 254.4766 15.08841438101583,6917.876,95.437,540.93,538.552,0.0
51864.0,STARLINK-3548,PAYLOAD,2023-12-26 02:12:22,15.08840144,0.0001912,53.2193,21.0207,117.5038,242.6149,-0.00010334,-1.932e-05,0.0,0 STARLINK-3548,1 51864U 22022N   23360.09193213 -.00001932  00000-0 -10334-3 0  9995,2 51864  53.2193  21.0207 0001912 117.5038 242.6149 15.08840144101699,6917.88,95.438,541.068,538.422,0.0
51864.0,STARLINK-3548,PAYLOAD,2023-12-26 11:44:41,15.08838853,0.0001953,53.2194,19.2354,119.8531,240.2656,-4.6225e-05,-1.024e-05,0.0,0 STARLINK-3548,1 51864U 22022N   23360.48937127 -.00001024  00000-0 -46225-4 0  9999,2 51864  53.2194  19.2354 0001953 119.8531 240.2656 15.08838853101758,6917.884,95.438,541.1,538.398,0.0
51864.0,STARLINK-3548,PAYLOAD,2023-12-27 08:24:42,15.08840438,0.000163,53.2191,15.3723,110.1192,249.9976,5.8871e-05,6.49e-06,0.0,0 STARLINK-3548,1 51864U 22022N   23361.35049118  .00000649  00000-0  58871-4 0  9990,2 51864  53.2191  15.3723 0001630 110.1192 249.9976 15.08840438101888,6917.879,95.438,540.872,538.616,0.0
51864.0,STARLINK-3548,PAYLOAD,2023-12-28 08:15:29,15.08840813,0.0001619,53.2191,10.9121,99.7053,260.4122,0.00012436,1.692e-05,0.0,0 STARLINK-3548,1 51864U 22022N   23362.34409272  .00001692  00000-0  12436-3 0  9996,2 51864  53.2191  10.9121 0001619  99.7053 260.4122 15.08840813102032,6917.878,95.438,540.863,538.623,0.0
51864.0,STARLINK-3548,PAYLOAD,2023-12-29 09:41:39,15.08847112,0.0001892,53.2198,6.1552,81.3386,278.782,8.4455e-05,1.056e-05,0.0,0 STARLINK-3548,1 51864U 22022N   23363.40393271  .00001056  00000-0  84455-4 0  9990,2 51864  53.2198   6.1552 0001892  81.3386 278.7820 15.08847112102196,6917.859,95.437,541.033,538.415,0.0
51864.0,STARLINK-3548,PAYLOAD,2023-12-30 09:32:27,15.08834421,0.0001823,53.2206,1.6865,95.7789,264.3411,0.00013003,1.782e-05,0.0,0 STARLINK-3548,1 51864U 22022N   23364.39753928  .00001782  00000-0  13003-3 0  9994,2 51864  53.2206   1.6865 0001823  95.7789 264.3411 15.08834421102346,6917.897,95.438,541.024,538.501,0.0
51864.0,STARLINK-3548,PAYLOAD,2023-12-31 03:01:41,15.08842429,0.00016,53.2188,358.416,98.7649,261.3524,3.085e-05,2.03e-06,0.0,0 STARLINK-3548,1 51864U 22022N   23365.12617405  .00000203  00000-0  30850-4 0  9992,2 51864  53.2188 358.4160 0001600  98.7649 261.3524 15.08842429102458,6917.873,95.437,540.845,538.631,0.0
51864.0,STARLINK-3548,PAYLOAD,2023-12-31 09:23:14,15.08842387,0.0001637,53.2189,357.2285,98.9794,261.1383,2.7242e-05,1.46e-06,0.0,0 STARLINK-3548,1 51864U 22022N   23365.39113435  .00000146  00000-0  27242-4 0  9992,2 51864  53.2189 357.2285 0001637  98.9794 261.1383 15.08842387102495,6917.873,95.437,540.871,538.606,0.0
51864.0,STARLINK-3548,PAYLOAD,2024-01-01 02:52:28,15.08835632,0.0001722,53.219,353.9574,109.5944,250.5234,8.1597e-06,-1.58e-06,0.0,0 STARLINK-3548,1 51864U 22022N   24001.11977887 -.00000158  00000-0  81597-5 0  9997,2 51864  53.2190 353.9574 0001722 109.5944 250.5234 15.08835632102607,6917.894,95.438,540.95,538.567,0.0
51864.0,STARLINK-3548,PAYLOAD,2024-01-01 06:03:15,15.08837658,0.0001704,53.2191,353.3626,105.188,254.9301,2.3795e-05,9.1e-07,0.0,0 STARLINK-3548,1 51864U 22022N   24001.25225789  .00000091  00000-0  23795-4 0  9999,2 51864  53.2191 353.3626 0001704 105.1880 254.9301 15.08837658102626,6917.888,95.438,540.931,538.574,0.0
51864.0,STARLINK-3548,PAYLOAD,2024-01-02 04:18:38,15.08845951,0.000168,53.2187,349.2014,113.5181,246.5988,5.3869e-05,5.7e-06,0.0,0 STARLINK-3548,1 51864U 22022N   24002.17961178  .00000570  00000-0  53869-4 0  9997,2 51864  53.2187 349.2014 0001680 113.5181 246.5988 15.08845951102764,6917.862,95.437,540.889,538.565,0.0
